<!DOCTYPE HTML PUBLIC "-//W3C//DTD HTML 4.0//EN">
<HTML>
<HEAD>
   <TITLE> Pseudo-MPEC for SO0005W </TITLE>
   <META http-equiv=Content-Type content="text/html; charset=utf-8">
   <style type="text/css">
   .neocp {color:black; background-color:black; text-decoration:blink;}
   .whtext {color:white;}
   </style>
</HEAD>
<BODY>

<P><b>  "Pseudo-MPEC" for SO0005W </b></p>

<p><i> Created 2026 Apr 28 11:56:09 UT using <a href="https://www.projectpluto.com/find_orb.htm">Find_Orb</a></i></p>
<p><i> <a href="https://www.projectpluto.com/mpec_xpl.htm"> Click here for an
   explanation of pseudo-MPECs </a> </i> </p>

<ul>
<li> <a href="#ast"> Astrometry </a> </li>
<li> <a href="#stations"> Observing stations </a> </li>
<li> <a href="#elements"> Orbital elements </a> </li>
<li> <a href="#residuals"> Residuals in arcseconds </a> </li>
<li> <a href="#eph"> Ephemeris </a> </li>

<li> <a href="https://cgi.minorplanetcenter.net/cgi-bin/showobsorbs.cgi?Obj=SO0005W&amp;obs=y"> Astrometry (from NEOCP,  if available) </a> </li>
<li> <a href="https://cneos.jpl.nasa.gov/scout/#/object/SO0005W"> 'Scout' (JPL) information </a> </li>
<li> <a href="https://neofixer.arizona.edu/site/500/SO0005W"> NEOfixer information </a> </li>
</ul>
<p>
<input type = "button" value = "Orbit Simulator View" onclick = "window.open('http://orbitsimulator.com/gravitySimulatorCloud/yr/gsim2023.html?sv,1,SO0005W,2461158.50,-119966662910.700409,-91700835864.895401,8298054.800922,16287.362979,-29308.699460,516.656025,0,0,00FF00,90,65,,16000,0,12,1,0,29.916188,0.150000')">
</p>
<pre> <a name="ast"></a>
<a href="https://www.projectpluto.com/mpec_xpl.htm#astrometry"> <b>Astrometry:</b> </a>
<a name="o001"></a><a href="#r001">     SO0005W</a>*0B2026 04 27.53432713 09 16.056-11 34 57.54   ~4RMK 16.85VVNEOCP<a href="#stn_E54">E54</a>
<a name="o002"></a><a href="#r002">     SO0005W</a> 0B2026 04 27.53581113 09 48.672-11 37 06.10   ~4RMK 16.79VVNEOCP<a href="#stn_E54">E54</a>
<a name="o003"></a><a href="#r003">     SO0005W</a> 0B2026 04 27.53735513 10 22.464-11 39 18.79   ~4RMK 16.78VVNEOCP<a href="#stn_E54">E54</a>
<a name="o004"></a><a href="#r004">     SO0005W</a> 0B2026 04 27.54619213 13 32.926-11 51 29.02   ~4RMK 16.92VVNEOCP<a href="#stn_E54">E54</a>
<a name="stations"></a>
<a href="https://www.projectpluto.com/mpec_xpl.htm#stns"><b>Station data:
</b></a><a name="stn_E54"></a>(E54) TransAstra at Springbrook  (<a title="Click for map" href="http://maps.google.com/maps?q=-31.28174,+149.08147">S31.281736 E149.081470</a>)  Australia/NSW.
<a name="elements"></a>
<a href="https://www.projectpluto.com/mpec_xpl.htm#elems"><b>Orbital elements:  SO0005W</b></a>
   Perigee 2026 Apr 27.25150 +/- 25.3 TT =  6:02:09 (JD 2461157.75150)
Epoch 2026 Apr 28.0 TT = JDT 2461158.5                           Find_Orb
q199173.738 +/- 8.57e+6             (J2000 equator)
H   29.92 G 0.15                    Peri.  186.74646 +/- 30
                                    Node   335.78998 +/- 0.28
e  16.3358523 +/- 0.142             Incl.   17.90057 +/- 0.35
From 4 observations 2026 Apr. 27 (17.1 min); mean residual 1".34
# State vector (heliocentric equatorial J2000):
#   -0.801927609994  -0.562422261532  -0.243779434826 AU
#   +9.406739245783 -15.649087754272  -6.459478655319 mAU/day
# State vector relative to central body:
#   -0.001884251754  -0.001901718196  -0.000809817703 AU
#   -0.755911176513  -3.050264869492  -0.998715068219 mAU/day
# Elements written: 28 Apr 2026 11:56:09 (JD 2461158.997330)
# Full range of obs: 2026 Apr. 27 (17.1 min) (4 observations)
# Find_Orb ver: 2026 Mar 01
# Perturbers: 00000001 ;  JPL DE-440
# Barbee-style encounter velocity: 5.4830 km/s
# Diameter 4.3 meters (assuming 10% albedo)
# Score: 0.547063
#  $Name=SO0005W  $Ty=2026  $Tm=03  $Td=27.892443  $MA=18.49000
#  $ecc=0.3122148  $Eqnx=2000.
#  $a=1.4009480  $Peri=324.22020  $Node=217.19150  $Incl=0.89174
#  $EpJD=2461158.500  $q=0.963551  $T=2461127.392443  $H=29.9
# Sigmas avail: 3
</pre> <!-- State vector (heliocentric equatorial J2000): -->
<!--   -0.801927609994  -0.562422261532  -0.243779434826 AU -->
<!--   +9.406739245783 -15.649087754272  -6.459478655319 mAU/day -->
<!-- State vector relative to central body: -->
<!--   -0.001884251754  -0.001901718196  -0.000809817703 AU -->
<!--   -0.755911176513  -3.050264869492  -0.998715068219 mAU/day -->
<!-- Elements written: 28 Apr 2026 11:56:09 (JD 2461158.997330) -->
<!-- Full range of obs: 2026 Apr. 27 (17.1 min) (4 observations) -->
<!-- Find_Orb ver: 2026 Mar 01 -->
<!-- Perturbers: 00000001 ;  JPL DE-440 -->
<!-- Barbee-style encounter velocity: 5.4830 km/s -->
<!-- Diameter 4.3 meters (assuming 10% albedo) -->
<!-- Score: 0.547063 -->
<!--  $Name=SO0005W  $Ty=2026  $Tm=03  $Td=27.892443  $MA=18.49000 -->
<!--  $ecc=0.3122148  $Eqnx=2000. -->
<!--  $a=1.4009480  $Peri=324.22020  $Node=217.19150  $Incl=0.89174 -->
<!--  $EpJD=2461158.500  $q=0.963551  $T=2461127.392443  $H=29.9 -->
<!-- Sigmas avail: 3 -->
<pre><b><a name="residuals"></a><a href="https://www.projectpluto.com/mpec_xpl.htm#resids">Residuals in arcseconds:</a> </b>
<a name="r001"></a><a href="#o001">260427</a> <a href="#stn_E54">E54</a>  1.6-  1.8+    <a name="r003"></a><a href="#o003">260427</a> <a href="#stn_E54">E54</a>  1.8+  2.1-    
<a name="r002"></a><a href="#o002">260427</a> <a href="#stn_E54">E54</a>  .27+  .25-    <a name="r004"></a><a href="#o004">260427</a> <a href="#stn_E54">E54</a>  .44-  .57+    

<a name="eph"></a><a href="https://www.projectpluto.com/mpec_xpl.htm#ephems"><b>Ephemerides (geocentric):</b></a>
Date (UTC) HH:MM   RA             Dec           delta  r     elong  mag  "/min    PA  
---- -----------  ------------   ------------  ------ ------ -----  --- ------- ------
2026 01 01 00:00  03 49 44.464   +17 12 57.16  .24304 1.1770 138.7 28.6   1.219 254.4 
2026 01 01 00:10  03 49 43.648   +17 12 53.88  .24303 1.1769 138.7 28.6   1.218 254.3 
2026 01 01 00:20  03 49 42.832   +17 12 50.60  .24302 1.1769 138.7 28.6   1.218 254.3 
2026 01 01 00:30  03 49 42.016   +17 12 47.33  .24302 1.1769 138.7 28.6   1.218 254.3 
2026 01 01 00:40  03 49 41.200   +17 12 44.05  .24301 1.1768 138.7 28.6   1.217 254.3 
2026 01 01 00:50  03 49 40.384   +17 12 40.77  .24300 1.1768 138.7 28.6   1.217 254.3 
2026 01 01 01:00  03 49 39.569   +17 12 37.49  .24300 1.1768 138.7 28.6   1.217 254.3 
2026 01 01 01:10  03 49 38.754   +17 12 34.22  .24299 1.1768 138.7 28.6   1.217 254.3 
2026 01 01 01:20  03 49 37.939   +17 12 30.94  .24298 1.1767 138.6 28.6   1.216 254.3 
2026 01 01 01:30  03 49 37.124   +17 12 27.67  .24298 1.1767 138.6 28.6   1.216 254.3 
2026 01 01 01:40  03 49 36.309   +17 12 24.39  .24297 1.1767 138.6 28.6   1.216 254.3 
2026 01 01 01:50  03 49 35.495   +17 12 21.12  .24296 1.1766 138.6 28.6   1.215 254.3 
2026 01 01 02:00  03 49 34.681   +17 12 17.85  .24296 1.1766 138.6 28.6   1.215 254.3 
2026 01 01 02:10  03 49 33.867   +17 12 14.57  .24295 1.1766 138.6 28.6   1.215 254.3 
2026 01 01 02:20  03 49 33.053   +17 12 11.30  .24294 1.1765 138.6 28.6   1.215 254.3 
2026 01 01 02:30  03 49 32.239   +17 12 08.03  .24294 1.1765 138.6 28.6   1.214 254.3 
2026 01 01 02:40  03 49 31.426   +17 12 04.76  .24293 1.1765 138.6 28.6   1.214 254.3 
2026 01 01 02:50  03 49 30.612   +17 12 01.49  .24292 1.1765 138.6 28.6   1.214 254.3 
2026 01 01 03:00  03 49 29.799   +17 11 58.22  .24292 1.1764 138.5 28.6   1.214 254.3 
2026 01 01 03:10  03 49 28.986   +17 11 54.95  .24291 1.1764 138.5 28.6   1.213 254.3 
</pre>
<hr>
<p style="font-family: sans-serif; font-size: 0.9em;">
  <a href="https://www.projectpluto.com/neocp2/mpecs/SO0005W.htm" target="_blank" rel="noopener">Bill Gray&rsquo;s pseudo-MPEC for SO0005W &rarr;</a><br>
  <a href="../index.html">&larr; back to NEOCP artsat catalog</a>
</p>
</body></html>
